[
  { "name": "Afrikaans", "iso_code": "af", "native_name": "Afrikaans" },
  { "name": "Albanian", "iso_code": "sq", "native_name": "Shqip" },
  { "name": "Amharic", "iso_code": "am", "native_name": "አማርኛ" },
  { "name": "Arabic", "iso_code": "ar", "native_name": "العربية" },
  { "name": "Armenian", "iso_code": "hy", "native_name": "Հայերեն" },
  { "name": "Azerbaijani", "iso_code": "az", "native_name": "Azərbaycan dili" },
  { "name": "Basque", "iso_code": "eu", "native_name": "Euskara" },
  { "name": "Belarusian", "iso_code": "be", "native_name": "Беларуская" },
  { "name": "Bengali", "iso_code": "bn", "native_name": "বাংলা" },
  { "name": "Bosnian", "iso_code": "bs", "native_name": "Bosanski" },
  { "name": "Bulgarian", "iso_code": "bg", "native_name": "Български" },
  { "name": "Catalan", "iso_code": "ca", "native_name": "Català" },
  {
    "name": "Chinese (Simplified)",
    "iso_code": "zh",
    "native_name": "简体中文"
  },
  {
    "name": "Chinese (Traditional)",
    "iso_code": "zh-tw",
    "native_name": "繁體中文"
  },
  { "name": "Croatian", "iso_code": "hr", "native_name": "Hrvatski" },
  { "name": "Czech", "iso_code": "cs", "native_name": "Čeština" },
  { "name": "Danish", "iso_code": "da", "native_name": "Dansk" },
  { "name": "Dutch", "iso_code": "nl", "native_name": "Nederlands" },
  { "name": "English", "iso_code": "en", "native_name": "English" },
  { "name": "Estonian", "iso_code": "et", "native_name": "Eesti" },
  { "name": "Finnish", "iso_code": "fi", "native_name": "Suomi" },
  { "name": "French", "iso_code": "fr", "native_name": "Français" },
  { "name": "Galician", "iso_code": "gl", "native_name": "Galego" },
  { "name": "Georgian", "iso_code": "ka", "native_name": "ქართული" },
  { "name": "German", "iso_code": "de", "native_name": "Deutsch" },
  { "name": "Greek", "iso_code": "el", "native_name": "Ελληνικά" },
  { "name": "Gujarati", "iso_code": "gu", "native_name": "ગુજરાતી" },
  { "name": "Hebrew", "iso_code": "he", "native_name": "עברית" },
  { "name": "Hindi", "iso_code": "hi", "native_name": "हिन्दी" },
  { "name": "Hungarian", "iso_code": "hu", "native_name": "Magyar" },
  { "name": "Icelandic", "iso_code": "is", "native_name": "Íslenska" },
  { "name": "Indonesian", "iso_code": "id", "native_name": "Bahasa Indonesia" },
  { "name": "Irish", "iso_code": "ga", "native_name": "Gaeilge" },
  { "name": "Italian", "iso_code": "it", "native_name": "Italiano" },
  { "name": "Japanese", "iso_code": "ja", "native_name": "日本語" },
  { "name": "Kannada", "iso_code": "kn", "native_name": "ಕನ್ನಡ" },
  { "name": "Kazakh", "iso_code": "kk", "native_name": "Қазақ тілі" },
  { "name": "Korean", "iso_code": "ko", "native_name": "한국어" },
  { "name": "Latvian", "iso_code": "lv", "native_name": "Latviešu" },
  { "name": "Lithuanian", "iso_code": "lt", "native_name": "Lietuvių" },
  { "name": "Macedonian", "iso_code": "mk", "native_name": "Македонски" },
  { "name": "Malay", "iso_code": "ms", "native_name": "Bahasa Melayu" },
  { "name": "Malayalam", "iso_code": "ml", "native_name": "മലയാളം" },
  { "name": "Maltese", "iso_code": "mt", "native_name": "Malti" },
  { "name": "Marathi", "iso_code": "mr", "native_name": "मराठी" },
  { "name": "Mongolian", "iso_code": "mn", "native_name": "Монгол" },
  { "name": "Nepali", "iso_code": "ne", "native_name": "नेपाली" },
  { "name": "Norwegian", "iso_code": "no", "native_name": "Norsk" },
  { "name": "Pashto", "iso_code": "ps", "native_name": "پښتو" },
  { "name": "Persian", "iso_code": "fa", "native_name": "فارسی" },
  { "name": "Polish", "iso_code": "pl", "native_name": "Polski" },
  { "name": "Portuguese", "iso_code": "pt", "native_name": "Português" },
  { "name": "Punjabi", "iso_code": "pa", "native_name": "ਪੰਜਾਬੀ" },
  { "name": "Romanian", "iso_code": "ro", "native_name": "Română" },
  { "name": "Russian", "iso_code": "ru", "native_name": "Русский" },
  { "name": "Serbian", "iso_code": "sr", "native_name": "Српски" },
  { "name": "Slovak", "iso_code": "sk", "native_name": "Slovenčina" },
  { "name": "Slovenian", "iso_code": "sl", "native_name": "Slovenščina" },
  { "name": "Somali", "iso_code": "so", "native_name": "Soomaaliga" },
  { "name": "Spanish", "iso_code": "es", "native_name": "Español" },
  { "name": "Swahili", "iso_code": "sw", "native_name": "Kiswahili" },
  { "name": "Swedish", "iso_code": "sv", "native_name": "Svenska" },
  { "name": "Tagalog", "iso_code": "tl", "native_name": "Tagalog" },
  { "name": "Tamil", "iso_code": "ta", "native_name": "தமிழ்" },
  { "name": "Telugu", "iso_code": "te", "native_name": "తెలుగు" },
  { "name": "Thai", "iso_code": "th", "native_name": "ไทย" },
  { "name": "Turkish", "iso_code": "tr", "native_name": "Türkçe" },
  { "name": "Ukrainian", "iso_code": "uk", "native_name": "Українська" },
  { "name": "Urdu", "iso_code": "ur", "native_name": "اردو" },
  { "name": "Uzbek", "iso_code": "uz", "native_name": "Oʻzbek" },
  { "name": "Vietnamese", "iso_code": "vi", "native_name": "Tiếng Việt" },
  { "name": "Welsh", "iso_code": "cy", "native_name": "Cymraeg" },
  { "name": "Yoruba", "iso_code": "yo", "native_name": "Yorùbá" },
  { "name": "Zulu", "iso_code": "zu", "native_name": "isiZulu" }
]
